0 FENGYUN 1C DEB
1 38112U 99025EPH 13294.32259566  .00013069  00000-0  69071-3 0   421
2 38112 098.3066 123.8492 0018812 095.6574 273.7783 15.15488530242054
